{
  "type": "FeatureCollection",
  "features": [
    {
      "type": "Feature",
      "properties": {
        "norad_id": 43262,
        "name": "GAOFEN-1 04",
        "group": "resource",
        "lat": -63.65248960029068,
        "lon": -144.51579341650043,
        "alt_km": 648.3558044328902,
        "timestamp": "2025-12-20T07:33:50.461278+00:00",
        "meta_object_name": "GAOFEN-1 04",
        "meta_object_id": "2018-031D",
        "meta_epoch": "2025-12-19T22:19:33.373632",
        "meta_mean_motion": 14.7641999,
        "meta_eccentricity": 7.476e-05,
        "meta_inclination": 98.0805,
        "meta_ra_of_asc_node": 51.769,
        "meta_arg_of_pericenter": 51.32,
        "meta_mean_anomaly": 308.8076,
        "meta_ephemeris_type": 0,
        "meta_classification_type": "U",
        "meta_norad_cat_id": 43262,
        "meta_element_set_no": 999,
        "meta_rev_at_epoch": 41623,
        "meta_bstar": 0.00010304293,
        "meta_mean_motion_dot": 6.65e-06,
        "meta_mean_motion_ddot": 0,
        "tle_line1": "1 43262U 18031D   25353.93024738  .00000665  00000+0  10304-3 0  9991",
        "tle_line2": "2 43262  98.0805  51.7690 0000747  51.3200 308.8076 14.76419990416234"
      },
      "geometry": {
        "type": "Point",
        "coordinates": [
          -144.51579341650043,
          -63.65248960029068
        ]
      }
    },
    {
      "type": "Feature",
      "properties": {
        "norad_id": 43437,
        "name": "SENTINEL-3B",
        "group": "resource",
        "lat": 41.51409426963182,
        "lon": -112.88665184307146,
        "alt_km": 798.4525742956102,
        "timestamp": "2025-12-20T07:33:50.461288+00:00",
        "meta_object_name": "SENTINEL-3B",
        "meta_object_id": "2018-039A",
        "meta_epoch": "2025-12-19T15:46:20.299296",
        "meta_mean_motion": 14.26736516,
        "meta_eccentricity": 0.00016299,
        "meta_inclination": 98.6259,
        "meta_ra_of_asc_node": 58.7431,
        "meta_arg_of_pericenter": 94.9149,
        "meta_mean_anomaly": 265.2217,
        "meta_ephemeris_type": 0,
        "meta_classification_type": "U",
        "meta_norad_cat_id": 43437,
        "meta_element_set_no": 999,
        "meta_rev_at_epoch": 39852,
        "meta_bstar": 6.0426874e-05,
        "meta_mean_motion_dot": 1.03e-06,
        "meta_mean_motion_ddot": 0,
        "tle_line1": "1 43437U 18039A   25353.65717939  .00000103  00000+0  60427-4 0  9993",
        "tle_line2": "2 43437  98.6259  58.7431 0001629  94.9149 265.2217 14.26736516398527"
      },
      "geometry": {
        "type": "Point",
        "coordinates": [
          -112.88665184307146,
          41.51409426963182
        ]
      }
    },
    {
      "type": "Feature",
      "properties": {
        "norad_id": 43461,
        "name": "GAOFEN-5 01",
        "group": "resource",
        "lat": -35.641682479699384,
        "lon": -36.478391799083305,
        "alt_km": 697.7663842639804,
        "timestamp": "2025-12-20T07:33:50.461299+00:00",
        "meta_object_name": "GAOFEN-5 01",
        "meta_object_id": "2018-043A",
        "meta_epoch": "2025-12-19T20:13:06.924000",
        "meta_mean_motion": 14.60416951,
        "meta_eccentricity": 5.516e-05,
        "meta_inclination": 98.4335,
        "meta_ra_of_asc_node": 316.9339,
        "meta_arg_of_pericenter": 297.4065,
        "meta_mean_anomaly": 62.7078,
        "meta_ephemeris_type": 0,
        "meta_classification_type": "U",
        "meta_norad_cat_id": 43461,
        "meta_element_set_no": 999,
        "meta_rev_at_epoch": 40551,
        "meta_bstar": 7.5009583e-05,
        "meta_mean_motion_dot": 3.14e-06,
        "meta_mean_motion_ddot": 0,
        "tle_line1": "1 43461U 18043A   25353.84244125  .00000314  00000+0  75010-4 0  9996",
        "tle_line2": "2 43461  98.4335 316.9339 0000551 297.4065  62.7078 14.60416951405512"
      },
      "geometry": {
        "type": "Point",
        "coordinates": [
          -36.478391799083305,
          -35.641682479699384
        ]
      }
    },
    {
      "type": "Feature",
      "properties": {
        "norad_id": 43484,
        "name": "GAOFEN-6",
        "group": "resource",
        "lat": 38.61764938040343,
        "lon": 52.03937579041458,
        "alt_km": 628.2374072342554,
        "timestamp": "2025-12-20T07:33:50.461309+00:00",
        "meta_object_name": "GAOFEN-6",
        "meta_object_id": "2018-048A",
        "meta_epoch": "2025-12-19T23:15:22.839840",
        "meta_mean_motion": 14.76578722,
        "meta_eccentricity": 0.00128819,
        "meta_inclination": 97.803,
        "meta_ra_of_asc_node": 57.9935,
        "meta_arg_of_pericenter": 42.3812,
        "meta_mean_anomaly": 317.8391,
        "meta_ephemeris_type": 0,
        "meta_classification_type": "U",
        "meta_norad_cat_id": 43484,
        "meta_element_set_no": 999,
        "meta_rev_at_epoch": 40694,
        "meta_bstar": 9.3761531e-05,
        "meta_mean_motion_dot": 6.06e-06,
        "meta_mean_motion_ddot": 0,
        "tle_line1": "1 43484U 18048A   25353.96901435  .00000606  00000+0  93762-4 0  9991",
        "tle_line2": "2 43484  97.8030  57.9935 0012881  42.3812 317.8391 14.76578722406944"
      },
      "geometry": {
        "type": "Point",
        "coordinates": [
          52.03937579041458,
          38.61764938040343
        ]
      }
    },
    {
      "type": "Feature",
      "properties": {
        "norad_id": 43585,
        "name": "GAOFEN-11 01",
        "group": "resource",
        "lat": 26.19006605986235,
        "lon": 53.644338598934624,
        "alt_km": 418.6289803669397,
        "timestamp": "2025-12-20T07:33:50.461319+00:00",
        "meta_object_name": "GAOFEN-11 01",
        "meta_object_id": "2018-063A",
        "meta_epoch": "2025-12-19T22:09:01.342944",
        "meta_mean_motion": 15.49406931,
        "meta_eccentricity": 0.00039026,
        "meta_inclination": 97.156,
        "meta_ra_of_asc_node": 56.7981,
        "meta_arg_of_pericenter": 276.2621,
        "meta_mean_anomaly": 83.8186,
        "meta_ephemeris_type": 0,
        "meta_classification_type": "U",
        "meta_norad_cat_id": 43585,
        "meta_element_set_no": 999,
        "meta_rev_at_epoch": 41253,
        "meta_bstar": 0.00013195695,
        "meta_mean_motion_dot": 7.151e-05,
        "meta_mean_motion_ddot": 0,
        "tle_line1": "1 43585U 18063A   25353.92293221  .00007151  00000+0  13196-3 0  9997",
        "tle_line2": "2 43585  97.1560  56.7981 0003902 276.2621  83.8186 15.49406931412532"
      },
      "geometry": {
        "type": "Point",
        "coordinates": [
          53.644338598934624,
          26.19006605986235
        ]
      }
    },
    {
      "type": "Feature",
      "properties": {
        "norad_id": 43613,
        "name": "ICESAT-2",
        "group": "resource",
        "lat": -86.82137477047132,
        "lon": 23.67256495910515,
        "alt_km": 490.22508224511057,
        "timestamp": "2025-12-20T07:33:50.461330+00:00",
        "meta_object_name": "ICESAT-2",
        "meta_object_id": "2018-070A",
        "meta_epoch": "2025-12-19T22:32:20.891616",
        "meta_mean_motion": 15.28217851,
        "meta_eccentricity": 0.00027834,
        "meta_inclination": 92.0049,
        "meta_ra_of_asc_node": 242.6801,
        "meta_arg_of_pericenter": 120.6722,
        "meta_mean_anomaly": 239.4802,
        "meta_ephemeris_type": 0,
        "meta_classification_type": "U",
        "meta_norad_cat_id": 43613,
        "meta_element_set_no": 999,
        "meta_rev_at_epoch": 40508,
        "meta_bstar": 0.00029106468,
        "meta_mean_motion_dot": 8.001e-05,
        "meta_mean_motion_ddot": 0,
        "tle_line1": "1 43613U 18070A   25353.93913069  .00008001  00000+0  29106-3 0  9990",
        "tle_line2": "2 43613  92.0049 242.6801 0002783 120.6722 239.4802 15.28217851405081"
      },
      "geometry": {
        "type": "Point",
        "coordinates": [
          23.67256495910515,
          -86.82137477047132
        ]
      }
    },
    {
      "type": "Feature",
      "properties": {
        "norad_id": 43719,
        "name": "HYSIS",
        "group": "resource",
        "lat": 47.97279264734734,
        "lon": -113.75539221997775,
        "alt_km": 629.1449756541815,
        "timestamp": "2025-12-20T07:33:50.461351+00:00",
        "meta_object_name": "HYSIS",
        "meta_object_id": "2018-096A",
        "meta_epoch": "2025-12-19T21:13:40.101888",
        "meta_mean_motion": 14.78664694,
        "meta_eccentricity": 0.00010988,
        "meta_inclination": 98.0096,
        "meta_ra_of_asc_node": 56.8278,
        "meta_arg_of_pericenter": 51.8808,
        "meta_mean_anomaly": 308.2502,
        "meta_ephemeris_type": 0,
        "meta_classification_type": "U",
        "meta_norad_cat_id": 43719,
        "meta_element_set_no": 999,
        "meta_rev_at_epoch": 38092,
        "meta_bstar": 0.00018028991,
        "meta_mean_motion_dot": 1.269e-05,
        "meta_mean_motion_ddot": 0,
        "tle_line1": "1 43719U 18096A   25353.88449192  .00001269  00000+0  18029-3 0  9991",
        "tle_line2": "2 43719  98.0096  56.8278 0001098  51.8808 308.2502 14.78664694380929"
      },
      "geometry": {
        "type": "Point",
        "coordinates": [
          -113.75539221997775,
          47.97279264734734
        ]
      }
    }
  ]
}